[{"OBJECT_NAME":"STARLINK-1771","OBJECT_ID":"2020-062BM","EPOCH":"2026-03-09T23:29:32.152704","MEAN_MOTION":15.46599985,"ECCENTRICITY":0.00025443,"INCLINATION":53.043,"RA_OF_ASC_NODE":344.5786,"ARG_OF_PERICENTER":249.4105,"MEAN_ANOMALY":110.6628,"EPHEMERIS_TYPE":0,"CLASSIFICATION_TYPE":"U","NORAD_CAT_ID":46384,"ELEMENT_SET_NO":999,"REV_AT_EPOCH":30478,"BSTAR":0.0015540489,"MEAN_MOTION_DOT":0.00079024,"MEAN_MOTION_DDOT":0},{"OBJECT_NAME":"OBJECT A","OBJECT_ID":"2024-016A","EPOCH":"2026-03-09T23:08:49.859808","MEAN_MOTION":15.48922607,"ECCENTRICITY":0.00067805,"INCLINATION":97.4468,"RA_OF_ASC_NODE":160.686,"ARG_OF_PERICENTER":66.6312,"MEAN_ANOMALY":293.5651,"EPHEMERIS_TYPE":0,"CLASSIFICATION_TYPE":"U","NORAD_CAT_ID":58820,"ELEMENT_SET_NO":999,"REV_AT_EPOCH":11868,"BSTAR":0.00061930458,"MEAN_MOTION_DOT":0.00033448,"MEAN_MOTION_DDOT":0}]
